TRANSPORTER-11 OBJECT A 
1 60468U 24149A   26068.74646182  .00010774  00000+0  36054-3 0  9993
2 60468  97.3780 149.0949 0003110 191.0010 169.1164 15.31141332 86830
STARLINK-34342          
1 64271U 25120R   26068.54973839  .00034198  00000+0  11616-2 0  9991
2 64271  53.1578 117.4182 0001218  79.6641 280.4497 15.30196937 43847
